{"fetchedAt":"2026-06-29T18:07:57.194Z","satellites":[{"id":"56726","name":"IRIDIUM 181","constellationId":"iridium","omm":{"OBJECT_NAME":"IRIDIUM 181","OBJECT_ID":"2023-068S","EPOCH":"2026-06-28T18:05:27.773088","MEAN_MOTION":14.43312011,"ECCENTRICITY":0.0002435,"INCLINATION":86.4488,"RA_OF_ASC_NODE":51.9549,"ARG_OF_PERICENTER":87.1177,"MEAN_ANOMALY":273.0303,"EPHEMERIS_TYPE":0,"CLASSIFICATION_TYPE":"U","NORAD_CAT_ID":56726,"ELEMENT_SET_NO":999,"REV_AT_EPOCH":16410,"BSTAR":0.000077196298,"MEAN_MOTION_DOT":0.0000028,"MEAN_MOTION_DDOT":0}},{"id":"56727","name":"IRIDIUM 177","constellationId":"iridium","omm":{"OBJECT_NAME":"IRIDIUM 177","OBJECT_ID":"2023-068T","EPOCH":"2026-06-29T10:10:06.930048","MEAN_MOTION":14.80039876,"ECCENTRICITY":0.0002331,"INCLINATION":86.1972,"RA_OF_ASC_NODE":322.9797,"ARG_OF_PERICENTER":89.5117,"MEAN_ANOMALY":270.6371,"EPHEMERIS_TYPE":0,"CLASSIFICATION_TYPE":"U","NORAD_CAT_ID":56727,"ELEMENT_SET_NO":999,"REV_AT_EPOCH":16817,"BSTAR":0.00013859,"MEAN_MOTION_DOT":0.00001075,"MEAN_MOTION_DDOT":0}},{"id":"56728","name":"IRIDIUM 174","constellationId":"iridium","omm":{"OBJECT_NAME":"IRIDIUM 174","OBJECT_ID":"2023-068U","EPOCH":"2026-06-29T12:33:00.466848","MEAN_MOTION":14.72238493,"ECCENTRICITY":0.0002326,"INCLINATION":86.6104,"RA_OF_ASC_NODE":348.5323,"ARG_OF_PERICENTER":80.2211,"MEAN_ANOMALY":279.9268,"EPHEMERIS_TYPE":0,"CLASSIFICATION_TYPE":"U","NORAD_CAT_ID":56728,"ELEMENT_SET_NO":999,"REV_AT_EPOCH":16783,"BSTAR":0.00012318,"MEAN_MOTION_DOT":0.00000801,"MEAN_MOTION_DDOT":0}},{"id":"56729","name":"IRIDIUM 178","constellationId":"iridium","omm":{"OBJECT_NAME":"IRIDIUM 178","OBJECT_ID":"2023-068V","EPOCH":"2026-06-29T13:08:56.007744","MEAN_MOTION":14.80041242,"ECCENTRICITY":0.0002475,"INCLINATION":86.6531,"RA_OF_ASC_NODE":20.1931,"ARG_OF_PERICENTER":85.7324,"MEAN_ANOMALY":274.4181,"EPHEMERIS_TYPE":0,"CLASSIFICATION_TYPE":"U","NORAD_CAT_ID":56729,"ELEMENT_SET_NO":999,"REV_AT_EPOCH":16819,"BSTAR":0.00010822,"MEAN_MOTION_DOT":0.00000845,"MEAN_MOTION_DDOT":0}},{"id":"56730","name":"IRIDIUM 179","constellationId":"iridium","omm":{"OBJECT_NAME":"IRIDIUM 179","OBJECT_ID":"2023-068W","EPOCH":"2026-06-29T13:01:20.860320","MEAN_MOTION":14.80057741,"ECCENTRICITY":0.0002419,"INCLINATION":86.6764,"RA_OF_ASC_NODE":29.2125,"ARG_OF_PERICENTER":87.3249,"MEAN_ANOMALY":272.8249,"EPHEMERIS_TYPE":0,"CLASSIFICATION_TYPE":"U","NORAD_CAT_ID":56730,"ELEMENT_SET_NO":999,"REV_AT_EPOCH":16819,"BSTAR":0.000070088,"MEAN_MOTION_DOT":0.00000557,"MEAN_MOTION_DDOT":0}}]}