IRIDIUM 181             
1 56726U 23068S   26179.75379367  .00000280  00000+0  77196-4 0  9990
2 56726  86.4488  51.9549 0002435  87.1177 273.0303 14.43312011164104
IRIDIUM 177             
1 56727U 23068T   26180.42369132  .00001075  00000+0  13859-3 0  9994
2 56727  86.1972 322.9797 0002331  89.5117 270.6371 14.80039876168176
IRIDIUM 174             
1 56728U 23068U   26180.52292207  .00000801  00000+0  12318-3 0  9999
2 56728  86.6104 348.5323 0002326  80.2211 279.9268 14.72238493167831
IRIDIUM 178             
1 56729U 23068V   26180.54787046  .00000845  00000+0  10822-3 0  9998
2 56729  86.6531  20.1931 0002475  85.7324 274.4181 14.80041242168191
IRIDIUM 179             
1 56730U 23068W   26180.54260255  .00000557  00000+0  70088-4 0  9999
2 56730  86.6764  29.2125 0002419  87.3249 272.8249 14.80057741168196
